[{"name":"SDO","l1":"1 36395U 10005A   26183.25044652 -.00000081  00000+0  00000+0 0  9998","l2":"2 36395  34.6806  86.1151 0001496  53.7669 128.3250  1.00270409 60216","cat":"geostationary"},{"name":"HST","l1":"1 20580U 90037B   26183.72415950  .00007907  00000+0  24931-3 0  9991","l2":"2 20580  28.4736 334.3758 0001625 336.7387  23.3136 15.30934799790959","cat":"science"},{"name":"POLAR","l1":"1 23802U 96013A   26181.90122648  .00000200  00000+0  00000+0 0  9994","l2":"2 23802  79.8715 226.8903 6484175 208.6086  90.7324  1.29846086145031","cat":"science"},{"name":"SWAS","l1":"1 25560U 98071A   26183.52028291  .00002473  00000+0  15954-3 0  9994","l2":"2 25560  69.8938 187.9752 0008370 244.7551 115.2746 15.09694194499587","cat":"science"},{"name":"CXO","l1":"1 25867U 99040B   26185.24501744  .00000765  00000+0  00000+0 0  9995","l2":"2 25867  56.3727 116.2458 7810468 310.0498   0.5720  0.37797064 17382","cat":"science"},{"name":"XMM-NEWTON","l1":"1 25989U 99066A   26181.31376484  .00000075  00000+0  00000+0 0  9997","l2":"2 25989  64.4187 282.8185 4670815  64.6474   0.0796  0.50127122 23075","cat":"science"},{"name":"TERRA","l1":"1 25994U 99068A   26183.71640850  .00000471  00000+0  10484-3 0  9993","l2":"2 25994  97.9448 232.6464 0002753 148.2704 359.4871 14.61115773411876","cat":"science"},{"name":"CLUSTER II-FM7 (SAMBA)","l1":"1 26410U 00041A   26183.75752675  .00012787  00000+0  00000+0 0  9995","l2":"2 26410 149.8840  53.4423 9072869 270.8480 359.6360  0.44834504 20376","cat":"science"},{"name":"CLUSTER II-FM8 (TANGO)","l1":"1 26464U 00045B   26181.94601251  .00015784  00000+0  00000+0 0  9990","l2":"2 26464 150.1096  54.2616 9074787 271.4997   2.3331  0.44420098 20376","cat":"science"},{"name":"ODIN","l1":"1 26702U 01007A   26183.37126976  .00265335  00000+0  12669-2 0  9995","l2":"2 26702  97.3774 225.3490 0005921 136.8623 223.3110 15.82090808391799","cat":"science"},{"name":"TIMED","l1":"1 26998U 01055B   26183.46307470  .00001103  00000+0  10361-3 0  9994","l2":"2 26998  74.0661 204.2601 0001860 314.0771  46.0260 14.95323191333109","cat":"science"},{"name":"CORIOLIS","l1":"1 27640U 03001A   26183.76994142  .00000126  00000+0  79653-4 0  9997","l2":"2 27640  98.7127 190.4169 0014285 163.3706 196.7942 14.19949108216431","cat":"science"},{"name":"SORCE","l1":"1 27651U 03004A   26183.41436498  .00003096  00000+0  23161-3 0  9990","l2":"2 27651  39.9888 174.7952 0017066 165.6393 194.4889 15.03784070274197","cat":"science"},{"name":"MOST","l1":"1 27843U 03031D   26183.76895757  .00000078  00000+0  55643-4 0  9996","l2":"2 27843  98.7045 191.2773 0009351 201.2863 158.7926 14.21325679192920","cat":"science"},{"name":"SCISAT 1","l1":"1 27858U 03036A   26183.62231588  .00000749  00000+0  10021-3 0  9993","l2":"2 27858  73.9295 140.6752 0007991 210.4938 149.5775 14.81465996233734","cat":"science"},{"name":"SWIFT","l1":"1 28485U 04047A   26183.76309306  .00056401  00000+0  44011-3 0  9994","l2":"2 28485  20.5533  64.6187 0000933 169.7724 190.2741 15.69870552189314","cat":"science"},{"name":"HINODE (SOLAR-B)","l1":"1 29479U 06041A   26183.51495064  .00000853  00000+0  15481-3 0  9993","l2":"2 29479  98.0543 199.4413 0016190 236.7494 123.2161 14.68644562 57122","cat":"science"},{"name":"SHIJIAN-6 02A (SJ-6 02A)","l1":"1 29505U 06046A   26183.72416845  .00005519  00000+0  28177-3 0  9991","l2":"2 29505  97.6346 224.9080 0004659  90.4687 269.7079 15.17120976 74629","cat":"science"},{"name":"SHIJIAN-6 02B (SJ-6 02B)","l1":"1 29506U 06046B   26183.80825351  .00001159  00000+0  94389-4 0  9992","l2":"2 29506  97.7148 212.7703 0014904  15.7989 344.3697 15.01414119 73080","cat":"science"},{"name":"FGRST (GLAST)","l1":"1 33053U 08029A   26183.15735134  .00003505  00000+0  12692-3 0  9997","l2":"2 33053  25.5819 100.5283 0008390 140.8430 219.2716 15.24014089998126","cat":"science"},{"name":"CRYOSAT 2","l1":"1 36508U 10013A   26183.72636997  .00000139  00000+0  33843-4 0  9993","l2":"2 36508  92.0362 281.0791 0002197  96.2620 263.8838 14.51895313860336","cat":"science"},{"name":"X-SAT","l1":"1 37389U 11015C   26183.74088464 -.00000001  00000+0  17082-4 0  9992","l2":"2 37389  98.3516 160.0240 0012966 300.9345  59.0561 14.25210538789893","cat":"science"},{"name":"GCOM-W1 (SHIZUKU)","l1":"1 38337U 12025A   26183.57322426  .00000547  00000+0  13134-3 0  9995","l2":"2 38337  98.2022 123.8961 0001553  67.8391 105.1377 14.57139035751271","cat":"science"},{"name":"NUSTAR","l1":"1 38358U 12031A   26183.75002315  .00021296  00000+0  12520-2 0  9998","l2":"2 38358   6.0271 277.4021 0007996 331.8144 284.2202 15.08943962  1304","cat":"science"},{"name":"NEOSSAT","l1":"1 39089U 13009D   26183.74958829  .00000183  00000+0  77844-4 0  9999","l2":"2 39089  98.4183   3.4125 0010651 194.0208 166.0684 14.35832027698971","cat":"science"},{"name":"BRITE-AUSTRIA","l1":"1 39091U 13009F   26183.74046976  .00000212  00000+0  86788-4 0  9993","l2":"2 39091  98.4001   2.7917 0009969 186.9933 173.1116 14.36548421699286","cat":"science"},{"name":"IRIS","l1":"1 39197U 13033A   26183.51850022  .00001178  00000+0  14096-3 0  9991","l2":"2 39197  97.9322  22.7472 0022948 268.9364  90.9222 14.85915926702654","cat":"science"},{"name":"HISAKI (SPRINT-A)","l1":"1 39253U 13049A   26183.59514801  .00000084  00000+0  25847-4 0  9993","l2":"2 39253  29.7180 141.6729 0136878 141.7696 219.2672 13.55545850633516","cat":"science"},{"name":"CASSIOPE","l1":"1 39265U 13055A   26183.70303992  .00042378 -39107-6  45736-3 0  9991","l2":"2 39265  80.9129  47.8593 0286705  10.2214 350.4675 15.26612002670031","cat":"science"},{"name":"STSAT-3","l1":"1 39422U 13066G   26183.76006862  .00002618  00000+0  19979-3 0  9995","l2":"2 39422  97.6218 153.3977 0009508 356.4778   3.6379 15.02839056686548","cat":"science"},{"name":"SWARM B","l1":"1 39451U 13067A   26183.71453884  .00004189  00000+0  14921-3 0  9990","l2":"2 39451  87.7453 337.5984 0002817  80.1264 280.0303 15.28648725685616","cat":"science"}]